{"type": "FeatureCollection", "features": [ {"type": "Feature", "properties": {"norad_id": 66856, "name": "STARLINK-36072", "group": "last-30-days", "lat": 32.40619080052914, "lon": -94.69472045232068, "alt_km": 288.92716491255214, "timestamp": "2025-12-11T18:59:44.812572+00:00", "meta": {"OBJECT_NAME": "STARLINK-36072", "OBJECT_ID": "2025-281J", "EPOCH": "2025-12-10T16:00:01.999584", "MEAN_MOTION": 15.95902482, "ECCENTRICITY": 0.00016438, "INCLINATION": 43.0014, "RA_OF_ASC_NODE": 135.2663, "ARG_OF_PERICENTER": 276.2049, "MEAN_ANOMALY": 226.6934, "EPHEMERIS_TYPE": 0, "CLASSIFICATION_TYPE": "U", "NORAD_CAT_ID": 66856, "ELEMENT_SET_NO": 999, "REV_AT_EPOCH": 246, "BSTAR": -0.0027360976, "MEAN_MOTION_DOT": -0.0115835, "MEAN_MOTION_DDOT": 0.00041087948}, "tle": {"line1": "1 66856U 25281J   25344.66668981 -.01158350  41088-3 -27361-2 0  9997", "line2": "2 66856  43.0014 135.2663 0001643 276.2049 226.6934 15.95902482  2464"}}, "geometry": {"type": "Point", "coordinates": [-94.69472045232068, 32.40619080052914]}}, {"type": "Feature", "properties": {"norad_id": 66857, "name": "STARLINK-36083", "group": "last-30-days", "lat": 31.316387270986937, "lon": -92.52327226891715, "alt_km": 289.03500231395174, "timestamp": "2025-12-11T18:59:44.812584+00:00", "meta": {"OBJECT_NAME": "STARLINK-36083", "OBJECT_ID": "2025-281K", "EPOCH": "2025-12-10T16:00:01.999584", "MEAN_MOTION": 15.95976314, "ECCENTRICITY": 0.00016557, "INCLINATION": 43.0014, "RA_OF_ASC_NODE": 135.2616, "ARG_OF_PERICENTER": 277.0441, "MEAN_ANOMALY": 227.797, "EPHEMERIS_TYPE": 0, "CLASSIFICATION_TYPE": "U", "NORAD_CAT_ID": 66857, "ELEMENT_SET_NO": 999, "REV_AT_EPOCH": 246, "BSTAR": -0.0027805964, "MEAN_MOTION_DOT": -0.01181694, "MEAN_MOTION_DDOT": 0.00042645657}, "tle": {"line1": "1 66857U 25281K   25344.66668981 -.01181694  42646-3 -27806-2 0  9990", "line2": "2 66857  43.0014 135.2616 0001655 277.0441 227.7970 15.95976314  2468"}}, "geometry": {"type": "Point", "coordinates": [-92.52327226891715, 31.316387270986937]}}, {"type": "Feature", "properties": {"norad_id": 66858, "name": "STARLINK-35118", "group": "last-30-days", "lat": 30.11675548371328, "lon": -90.26740060604892, "alt_km": 289.02800067958924, "timestamp": "2025-12-11T18:59:44.812594+00:00", "meta": {"OBJECT_NAME": "STARLINK-35118", "OBJECT_ID": "2025-281L", "EPOCH": "2025-12-10T16:00:01.999584", "MEAN_MOTION": 15.96046904, "ECCENTRICITY": 0.00016257, "INCLINATION": 43.0016, "RA_OF_ASC_NODE": 135.2559, "ARG_OF_PERICENTER": 274.4321, "MEAN_ANOMALY": 232.4648, "EPHEMERIS_TYPE": 0, "CLASSIFICATION_TYPE": "U", "NORAD_CAT_ID": 66858, "ELEMENT_SET_NO": 999, "REV_AT_EPOCH": 246, "BSTAR": -0.002802372, "MEAN_MOTION_DOT": -0.01195394, "MEAN_MOTION_DDOT": 0.00043584987}, "tle": {"line1": "1 66858U 25281L   25344.66668981 -.01195394  43585-3 -28024-2 0  9999", "line2": "2 66858  43.0016 135.2559 0001625 274.4321 232.4648 15.96046904  2461"}}, "geometry": {"type": "Point", "coordinates": [-90.26740060604892, 30.11675548371328]}}, {"type": "Feature", "properties": {"norad_id": 66859, "name": "STARLINK-35646", "group": "last-30-days", "lat": 28.725813535467967, "lon": -87.80119563091738, "alt_km": 289.1572277587129, "timestamp": "2025-12-11T18:59:44.812605+00:00", "meta": {"OBJECT_NAME": "STARLINK-35646", "OBJECT_ID": "2025-281M", "EPOCH": "2025-12-10T16:00:01.999584", "MEAN_MOTION": 15.96125298, "ECCENTRICITY": 0.00016815, "INCLINATION": 43.0016, "RA_OF_ASC_NODE": 135.2504, "ARG_OF_PERICENTER": 276.3454, "MEAN_ANOMALY": 232.8564, "EPHEMERIS_TYPE": 0, "CLASSIFICATION_TYPE": "U", "NORAD_CAT_ID": 66859, "ELEMENT_SET_NO": 999, "REV_AT_EPOCH": 246, "BSTAR": -0.0028252473, "MEAN_MOTION_DOT": -0.01210178, "MEAN_MOTION_DDOT": 0.00044610917}, "tle": {"line1": "1 66859U 25281M   25344.66668981 -.01210178  44611-3 -28252-2 0  9992", "line2": "2 66859  43.0016 135.2504 0001681 276.3454 232.8564 15.96125298  2467"}}, "geometry": {"type": "Point", "coordinates": [-87.80119563091738, 28.725813535467967]}}, {"type": "Feature", "properties": {"norad_id": 66860, "name": "STARLINK-35987", "group": "last-30-days", "lat": 20.851846587751304, "lon": -75.93622050789315, "alt_km": 289.05662223587024, "timestamp": "2025-12-11T18:59:44.812616+00:00", "meta": {"OBJECT_NAME": "STARLINK-35987", "OBJECT_ID": "2025-281N", "EPOCH": "2025-12-10T16:00:01.999584", "MEAN_MOTION": 15.96505755, "ECCENTRICITY": 0.00015818, "INCLINATION": 43.0016, "RA_OF_ASC_NODE": 135.2202, "ARG_OF_PERICENTER": 268.6575, "MEAN_ANOMALY": 252.4584, "EPHEMERIS_TYPE": 0, "CLASSIFICATION_TYPE": "U", "NORAD_CAT_ID": 66860, "ELEMENT_SET_NO": 999, "REV_AT_EPOCH": 246, "BSTAR": -0.0028282072, "MEAN_MOTION_DOT": -0.01236658, "MEAN_MOTION_DDOT": 0.00046592572}, "tle": {"line1": "1 66860U 25281N   25344.66668981 -.01236658  46593-3 -28282-2 0  9999", "line2": "2 66860  43.0016 135.2202 0001581 268.6575 252.4584 15.96505755  2461"}}, "geometry": {"type": "Point", "coordinates": [-75.93622050789315, 20.851846587751304]}}, {"type": "Feature", "properties": {"norad_id": 66861, "name": "STARLINK-35991", "group": "last-30-days", "lat": 25.731114283487425, "lon": -82.93208864126164, "alt_km": 289.08602992154647, "timestamp": "2025-12-11T18:59:44.812627+00:00", "meta": {"OBJECT_NAME": "STARLINK-35991", "OBJECT_ID": "2025-281P", "EPOCH": "2025-12-10T16:00:01.999584", "MEAN_MOTION": 15.96277539, "ECCENTRICITY": 0.00015893, "INCLINATION": 43.0017, "RA_OF_ASC_NODE": 135.2384, "ARG_OF_PERICENTER": 271.8161, "MEAN_ANOMALY": 242.1053, "EPHEMERIS_TYPE": 0, "CLASSIFICATION_TYPE": "U", "NORAD_CAT_ID": 66861, "ELEMENT_SET_NO": 999, "REV_AT_EPOCH": 246, "BSTAR": -0.0028387746, "MEAN_MOTION_DOT": -0.01225954, "MEAN_MOTION_DDOT": 0.00045750931}, "tle": {"line1": "1 66861U 25281P   25344.66668981 -.01225954  45751-3 -28388-2 0  9999", "line2": "2 66861  43.0017 135.2384 0001589 271.8161 242.1053 15.96277539  2462"}}, "geometry": {"type": "Point", "coordinates": [-82.93208864126164, 25.731114283487425]}}, {"type": "Feature", "properties": {"norad_id": 66862, "name": "STARLINK-35974", "group": "last-30-days", "lat": 27.16228513710219, "lon": -85.19191977595798, "alt_km": 289.1379944413702, "timestamp": "2025-12-11T18:59:44.812637+00:00", "meta": {"OBJECT_NAME": "STARLINK-35974", "OBJECT_ID": "2025-281Q", "EPOCH": "2025-12-10T16:00:01.999584", "MEAN_MOTION": 15.96204816, "ECCENTRICITY": 0.00015852, "INCLINATION": 43.0016, "RA_OF_ASC_NODE": 135.2443, "ARG_OF_PERICENTER": 276.2426, "MEAN_ANOMALY": 235.4564, "EPHEMERIS_TYPE": 0, "CLASSIFICATION_TYPE": "U", "NORAD_CAT_ID": 66862, "ELEMENT_SET_NO": 999, "REV_AT_EPOCH": 246, "BSTAR": -0.0028310506, "MEAN_MOTION_DOT": -0.01217847, "MEAN_MOTION_DDOT": 0.00045165679}, "tle": {"line1": "1 66862U 25281Q   25344.66668981 -.01217847  45166-3 -28311-2 0  9998", "line2": "2 66862  43.0016 135.2443 0001585 276.2426 235.4564 15.96204816  2467"}}, "geometry": {"type": "Point", "coordinates": [-85.19191977595798, 27.16228513710219]}}, {"type": "Feature", "properties": {"norad_id": 66863, "name": "STARLINK-36134", "group": "last-30-days", "lat": 23.793621911483463, "lon": -80.03656750120382, "alt_km": 289.0966344559838, "timestamp": "2025-12-11T18:59:44.812647+00:00", "meta": {"OBJECT_NAME": "STARLINK-36134", "OBJECT_ID": "2025-281R", "EPOCH": "2025-12-10T16:00:01.999584", "MEAN_MOTION": 15.96368931, "ECCENTRICITY": 0.00015593, "INCLINATION": 43.002, "RA_OF_ASC_NODE": 135.2311, "ARG_OF_PERICENTER": 271.3805, "MEAN_ANOMALY": 245.4654, "EPHEMERIS_TYPE": 0, "CLASSIFICATION_TYPE": "U", "NORAD_CAT_ID": 66863, "ELEMENT_SET_NO": 999, "REV_AT_EPOCH": 246, "BSTAR": -0.0028390273, "MEAN_MOTION_DOT": -0.01232146, "MEAN_MOTION_DDOT": 0.00046217446}, "tle": {"line1": "1 66863U 25281R   25344.66668981 -.01232146  46217-3 -28390-2 0  9993", "line2": "2 66863  43.0020 135.2311 0001559 271.3805 245.4654 15.96368931  2465"}}, "geometry": {"type": "Point", "coordinates": [-80.03656750120382, 23.793621911483463]}}, {"type": "Feature", "properties": {"norad_id": 66864, "name": "STARLINK-36070", "group": "last-30-days", "lat": 22.38234989541083, "lon": -78.02988691922732, "alt_km": 289.1462212580791, "timestamp": "2025-12-11T18:59:44.812659+00:00", "meta": {"OBJECT_NAME": "STARLINK-36070", "OBJECT_ID": "2025-281S", "EPOCH": "2025-12-10T16:00:01.999584", "MEAN_MOTION": 15.96435157, "ECCENTRICITY": 0.00015459, "INCLINATION": 43.0019, "RA_OF_ASC_NODE": 135.2256, "ARG_OF_PERICENTER": 273.7453, "MEAN_ANOMALY": 245.1559, "EPHEMERIS_TYPE": 0, "CLASSIFICATION_TYPE": "U", "NORAD_CAT_ID": 66864, "ELEMENT_SET_NO": 999, "REV_AT_EPOCH": 246, "BSTAR": -0.0028280569, "MEAN_MOTION_DOT": -0.01231853, "MEAN_MOTION_DDOT": 0.00046228589}, "tle": {"line1": "1 66864U 25281S   25344.66668981 -.01231853  46229-3 -28281-2 0  9990", "line2": "2 66864  43.0019 135.2256 0001545 273.7453 245.1559 15.96435157  2468"}}, "geometry": {"type": "Point", "coordinates": [-78.02988691922732, 22.38234989541083]}}, {"type": "Feature", "properties": {"norad_id": 66865, "name": "STARLINK-36117", "group": "last-30-days", "lat": 19.206625970218315, "lon": -73.7685580227833, "alt_km": 289.1311300942134, "timestamp": "2025-12-11T18:59:44.812670+00:00", "meta": {"OBJECT_NAME": "STARLINK-36117", "OBJECT_ID": "2025-281T", "EPOCH": "2025-12-10T16:00:01.999584", "MEAN_MOTION": 15.96583953, "ECCENTRICITY": 0.00015871, "INCLINATION": 43.0019, "RA_OF_ASC_NODE": 135.2145, "ARG_OF_PERICENTER": 270.3957, "MEAN_ANOMALY": 253.0482, "EPHEMERIS_TYPE": 0, "CLASSIFICATION_TYPE": "U", "NORAD_CAT_ID": 66865, "ELEMENT_SET_NO": 999, "REV_AT_EPOCH": 246, "BSTAR": -0.0028296854, "MEAN_MOTION_DOT": -0.01242568, "MEAN_MOTION_DDOT": 0.00047038241}, "tle": {"line1": "1 66865U 25281T   25344.66668981 -.01242568  47038-3 -28297-2 0  9992", "line2": "2 66865  43.0019 135.2145 0001587 270.3957 253.0482 15.96583953  2465"}}, "geometry": {"type": "Point", "coordinates": [-73.7685580227833, 19.206625970218315]}}]}